[Satellite]
VERSION=1.1
NAME=STSAT-3
NICKNAME=STSAT-3
TLE1=1 39422U 13066G   17186.22080399  .00000434  00000-0  51115-4 0  9990
TLE2=2 39422  97.6561 248.1552 0023061 170.8412 189.3230 14.89454709196618
